{
  "products": [
    {
      "id": 1,
      "name": "Adidas Prophere Triple Black 2",
      "img": "https://firebasestorage.googleapis.com/v0/b/ecma-8f8c9.appspot.com/o/images%2FAdidas%20Prophere%20Triple%20Black.jpg?alt=media&token=eb85a183-426d-4298-9075-9ad7aeab2b95",
      "price": "3220000",
      "detail": "Adidas Prophere pha trộn giữa các chi tiết hiện đại và di sản, thể thao phần trên đan giống như bít tất mang thương hiệu Three-Stripes vào hệ thống viền sáng tạo. Đế giữa được điêu khắc có các góc sắc nét trên thành bên và các rãnh uốn sâu cung cấp lực kéo và sự linh hoạt. Các chi tiết màu trắng xuất hiện dưới dạng đường trên gót chân, lốm đốm ở mặt trên và như một ứng dụng trên đế ngoài.",
      "categoryId": "1",
      "categoryName": "Giày",
      "status": "Còn Hàng"
    },
    {
      "name": "Adidas Ultra Boost 4.0 core black",
      "img": "https://firebasestorage.googleapis.com/v0/b/ecma-8f8c9.appspot.com/o/images%2FAdidas%20Ultra%20Boost%204.0%20core%20black.jpg?alt=media&token=cc226475-267b-4a51-ace1-936a3a210ff1",
      "price": "4500000",
      "detail": "Một huyền thoại trẻ. Dòng giày adidas Ultraboost ra mắt năm 2015 và có sức ảnh hưởng mạnh mẽ không chỉ trong giới chạy bộ. Điều gì cũng có lý do. Thân giày adidas Primeknit ôm chân tạo độ nâng đỡ, thích ứng theo hình dáng thay đổi của bàn chân trong từng cú cất bước và tiếp đất. Lớp đệm Boost êm ái hoàn trả năng lượng trong từng sải bước. Càng dùng nhiều sức, bạn càng nhận nhiều năng lượng. Vậy nên hãy nỗ lực hết mình. Đôi giày này sẽ đồng hành cùng bạn.",
      "categoryId": "1",
      "categoryName": "Giày",
      "status": "Còn Hàng",
      "id": 2
    },
    {
      "name": "Yeezy Boost 350 V2 Static Black",
      "img": "https://firebasestorage.googleapis.com/v0/b/ecma-8f8c9.appspot.com/o/images%2FYeezy%20Boost%20350%20V2%20Static%20Black.jpg?alt=media&token=5beccb45-e5d5-4676-8a7e-fa0ba7422240",
      "price": "225000000",
      "detail": "Yeezy Boost Static Black được gia công bằng chất liệu vải primeknit. Chắc hẳn với các tín đồ mê giày thì chất liệu này đã không còn quá xa lạ, nó được nhiều ông lớn trong ngành sneaker lựa chọn để áp dụng cho sản phẩm của mình bởi khả năng co giãn tốt cùng độ thoáng khí tối đa, giúp người dùng cảm thấy thoải mái trong suốt quá trình sử dụng dù có đi đôi giày 24/24 giờ.",
      "categoryId": "1",
      "categoryName": "Giày",
      "status": "Còn Hàng",
      "id": 3
    },
    {
      "name": "BA LÔ CLASSIC ADICOLOR CỠ NHỎ",
      "img": "https://firebasestorage.googleapis.com/v0/b/ecma-8f8c9.appspot.com/o/images%2FBA%20L%C3%94%20CLASSIC%20ADICOLOR%20C%E1%BB%A0%20NH%E1%BB%8E.jpg?alt=media&token=6b20cde4-9eba-401d-9def-62e4263451f5",
      "price": "650000",
      "detail": "Nhỏ bé về kích cỡ đâu có nghĩa là kém cạnh về phong cách. Mang đến nét cổ điển cho outfit của bạn khi đeo chiếc ba lô adidas logo Ba Lá này. Điện thoại và chìa khóa của bạn luôn ở ngay trong tầm tay nhờ có ngăn khóa kéo phía trước.  Sản phẩm này may bằng vải công nghệ Primegreen, thuộc dòng chất liệu tái chế hiệu năng cao.",
      "categoryId": "3",
      "categoryName": "Phụ Kiện",
      "status": "Còn Hàng",
      "id": 4
    },
    {
      "name": "BỘ 2 ĐÔI TẤT CAO CỔ",
      "img": "https://firebasestorage.googleapis.com/v0/b/ecma-8f8c9.appspot.com/o/images%2FB%E1%BB%98%202%20%C4%90%C3%94I%20T%E1%BA%A4T%20CAO%20C%E1%BB%94.jpg?alt=media&token=6466c7da-1dd5-43be-aec4-96ad275147e9",
      "price": "350000",
      "detail": "Chiều dài tới bắp chân 51% cotton, 34% polyester, 7% chất liệu khác, 5% nylon, 3% elastane Bộ hai đôi tất 3 Sọc Cổ tất có gân bo Các chi tiết phản quang Màu sản phẩm: White / Reflective Silver Mã sản phẩm: GU2383",
      "categoryId": "3",
      "categoryName": "Phụ Kiện",
      "status": "Còn Hàng",
      "id": 5
    },
    {
      "name": "MŨ LƯỠI TRAI VÀNH CONG BA LÁ CLASSIC ADICOLOR",
      "img": "https://firebasestorage.googleapis.com/v0/b/ecma-8f8c9.appspot.com/o/images%2FM%C5%A8%20L%C6%AF%E1%BB%A0I%20TRAI%20V%C3%80NH%20CONG%20BA%20L%C3%81%20CLASSIC%20ADICOLOR.jpg?alt=media&token=15d7ce3a-89f7-40f8-822f-36bd7ddede63",
      "price": "650000",
      "detail": "Vải twill làm từ 100% cotton Quai bấm phía sau tùy chỉnh Better Cotton Initiative Màu sản phẩm: Victory Blue Mã sản phẩm: H34671",
      "categoryId": "3",
      "categoryName": "Phụ Kiện",
      "status": "Còn Hàng",
      "id": 6
    },
    {
      "id": 7,
      "name": "Túi Phụ Kiện Adidas CJ2067",
      "price": "650000",
      "detail": "Kích thước: 5 cm x 36 cm x 12 cm Dung tích: 2,25 L Lớp ngoài và lớp lót: Vải dệt trơn làm từ 100% polyester tái chế Hai ngăn có khóa kéo Primegreen Màu sản phẩm: Black / White Mã sản phẩm: H35587",
      "categoryId": "3",
      "categoryName": "Phụ Kiện",
      "img": "https://firebasestorage.googleapis.com/v0/b/ecma-8f8c9.appspot.com/o/images%2FT%C3%BAi%20Ph%E1%BB%A5%20Ki%E1%BB%87n%20Adidas%20CJ2067.jpg?alt=media&token=b4af86de-7784-4c89-8df7-caa4afde8326",
      "status": "Còn Hàng"
    },
    {
      "name": "Áo ngực thể thao ADIDAS thép không gọng thoải mái",
      "img": "https://firebasestorage.googleapis.com/v0/b/ecma-8f8c9.appspot.com/o/images%2F%C3%81o%20ng%E1%BB%B1c%20th%E1%BB%83%20thao%20ADIDAS%20th%C3%A9p%20kh%C3%B4ng%20g%E1%BB%8Dng%20tho%E1%BA%A3i%20m%C3%A1i.jpg?alt=media&token=35a05a80-e85c-4905-a19b-92414d70c320",
      "price": "440000",
      "detail": "Sản phẩm đang được bán tại Nước ngoài, nên thời gian nhận hàng phụ thuộc vào địa chỉ nhận hàng của bạn. Mặc khác, shop bán Áo ngực thể thao ADIDAS thép không gọng thoải mái chưa được chứng thực bởi Shopee nên bạn cân nhắc qua điểm đánh giá, số sản phẩm đang bán, mức độ theo dõi và độ phản hồi trước khi khi đặt hàng",
      "categoryId": "2",
      "categoryName": "Quần Áo",
      "status": "Còn Hàng",
      "id": 8
    },
    {
      "name": "Bo_3_quan_lot_djui_DJen_FS8393_01_standard",
      "img": "https://firebasestorage.googleapis.com/v0/b/ecma-8f8c9.appspot.com/o/images%2FBo_3_quan_lot_djui_DJen_FS8393_01_standard.jpg?alt=media&token=7ca18962-7189-4970-a10c-96d5d0906e9e",
      "price": "325000",
      "detail": "Kiểu dáng bó sát cơ thể Vải jersey một mặt phải làm từ 57% cotton / 38% polyester / 5% elastane Vải công nghệ Climalite thoát mồ hôi Cạp co giãn Mỗi bộ sản phẩm gồm ba quần Màu sản phẩm: Black / Black / Black Mã sản phẩm: FS8393",
      "categoryId": "2",
      "categoryName": "Quần Áo",
      "status": "Còn Hàng",
      "id": 9
    }
  ],
  "category": [
    {
      "id": 1,
      "name": "Giày"
    },
    {
      "id": 2,
      "name": "Quần Áo"
    },
    {
      "id": 3,
      "name": "Phụ Kiện"
    }
  ],
  "users": [
    {
      "email": "thienhotdog@gmail.com",
      "password": "$2a$10$2GihchfEHjDap/uFVA65nOtB1GOOGofii3LkDBbEkNOQlY63xCeVm",
      "username": "hieutqph12803",
      "phone": "0866485651",
      "id": 1
    },
    {
      "email": "thienhotdog1@gmail.com",
      "password": "$2a$10$E3MF1qscXK7tX9e2aTRf6.fi33HApQWmdszeGFx8jUa703gPon8oa",
      "username": "hieutqph128031",
      "phone": "0866485651",
      "id": 2
    }
  ],
  "address": [
    {
      "name": "Thành phố Hà Nội",
      "code": 1,
      "division_type": "thành phố trung ương",
      "codename": "thanh_pho_ha_noi",
      "phone_code": 24,
      "districts": []
    },
    {
      "name": "Tỉnh Hà Giang",
      "code": 2,
      "division_type": "tỉnh",
      "codename": "tinh_ha_giang",
      "phone_code": 219,
      "districts": []
    },
    {
      "name": "Tỉnh Cao Bằng",
      "code": 4,
      "division_type": "tỉnh",
      "codename": "tinh_cao_bang",
      "phone_code": 206,
      "districts": []
    },
    {
      "name": "Tỉnh Bắc Kạn",
      "code": 6,
      "division_type": "tỉnh",
      "codename": "tinh_bac_kan",
      "phone_code": 209,
      "districts": []
    },
    {
      "name": "Tỉnh Tuyên Quang",
      "code": 8,
      "division_type": "tỉnh",
      "codename": "tinh_tuyen_quang",
      "phone_code": 207,
      "districts": []
    },
    {
      "name": "Tỉnh Lào Cai",
      "code": 10,
      "division_type": "tỉnh",
      "codename": "tinh_lao_cai",
      "phone_code": 214,
      "districts": []
    },
    {
      "name": "Tỉnh Điện Biên",
      "code": 11,
      "division_type": "tỉnh",
      "codename": "tinh_dien_bien",
      "phone_code": 215,
      "districts": []
    },
    {
      "name": "Tỉnh Lai Châu",
      "code": 12,
      "division_type": "tỉnh",
      "codename": "tinh_lai_chau",
      "phone_code": 213,
      "districts": []
    },
    {
      "name": "Tỉnh Sơn La",
      "code": 14,
      "division_type": "tỉnh",
      "codename": "tinh_son_la",
      "phone_code": 212,
      "districts": []
    },
    {
      "name": "Tỉnh Yên Bái",
      "code": 15,
      "division_type": "tỉnh",
      "codename": "tinh_yen_bai",
      "phone_code": 216,
      "districts": []
    },
    {
      "name": "Tỉnh Hoà Bình",
      "code": 17,
      "division_type": "tỉnh",
      "codename": "tinh_hoa_binh",
      "phone_code": 218,
      "districts": []
    },
    {
      "name": "Tỉnh Thái Nguyên",
      "code": 19,
      "division_type": "tỉnh",
      "codename": "tinh_thai_nguyen",
      "phone_code": 208,
      "districts": []
    },
    {
      "name": "Tỉnh Lạng Sơn",
      "code": 20,
      "division_type": "tỉnh",
      "codename": "tinh_lang_son",
      "phone_code": 205,
      "districts": []
    },
    {
      "name": "Tỉnh Quảng Ninh",
      "code": 22,
      "division_type": "tỉnh",
      "codename": "tinh_quang_ninh",
      "phone_code": 203,
      "districts": []
    },
    {
      "name": "Tỉnh Bắc Giang",
      "code": 24,
      "division_type": "tỉnh",
      "codename": "tinh_bac_giang",
      "phone_code": 204,
      "districts": []
    },
    {
      "name": "Tỉnh Phú Thọ",
      "code": 25,
      "division_type": "tỉnh",
      "codename": "tinh_phu_tho",
      "phone_code": 210,
      "districts": []
    },
    {
      "name": "Tỉnh Vĩnh Phúc",
      "code": 26,
      "division_type": "tỉnh",
      "codename": "tinh_vinh_phuc",
      "phone_code": 211,
      "districts": []
    },
    {
      "name": "Tỉnh Bắc Ninh",
      "code": 27,
      "division_type": "tỉnh",
      "codename": "tinh_bac_ninh",
      "phone_code": 222,
      "districts": []
    },
    {
      "name": "Tỉnh Hải Dương",
      "code": 30,
      "division_type": "tỉnh",
      "codename": "tinh_hai_duong",
      "phone_code": 220,
      "districts": []
    },
    {
      "name": "Thành phố Hải Phòng",
      "code": 31,
      "division_type": "thành phố trung ương",
      "codename": "thanh_pho_hai_phong",
      "phone_code": 225,
      "districts": []
    },
    {
      "name": "Tỉnh Hưng Yên",
      "code": 33,
      "division_type": "tỉnh",
      "codename": "tinh_hung_yen",
      "phone_code": 221,
      "districts": []
    },
    {
      "name": "Tỉnh Thái Bình",
      "code": 34,
      "division_type": "tỉnh",
      "codename": "tinh_thai_binh",
      "phone_code": 227,
      "districts": []
    },
    {
      "name": "Tỉnh Hà Nam",
      "code": 35,
      "division_type": "tỉnh",
      "codename": "tinh_ha_nam",
      "phone_code": 226,
      "districts": []
    },
    {
      "name": "Tỉnh Nam Định",
      "code": 36,
      "division_type": "tỉnh",
      "codename": "tinh_nam_dinh",
      "phone_code": 228,
      "districts": []
    },
    {
      "name": "Tỉnh Ninh Bình",
      "code": 37,
      "division_type": "tỉnh",
      "codename": "tinh_ninh_binh",
      "phone_code": 229,
      "districts": []
    },
    {
      "name": "Tỉnh Thanh Hóa",
      "code": 38,
      "division_type": "tỉnh",
      "codename": "tinh_thanh_hoa",
      "phone_code": 237,
      "districts": []
    },
    {
      "name": "Tỉnh Nghệ An",
      "code": 40,
      "division_type": "tỉnh",
      "codename": "tinh_nghe_an",
      "phone_code": 238,
      "districts": []
    },
    {
      "name": "Tỉnh Hà Tĩnh",
      "code": 42,
      "division_type": "tỉnh",
      "codename": "tinh_ha_tinh",
      "phone_code": 239,
      "districts": []
    },
    {
      "name": "Tỉnh Quảng Bình",
      "code": 44,
      "division_type": "tỉnh",
      "codename": "tinh_quang_binh",
      "phone_code": 232,
      "districts": []
    },
    {
      "name": "Tỉnh Quảng Trị",
      "code": 45,
      "division_type": "tỉnh",
      "codename": "tinh_quang_tri",
      "phone_code": 233,
      "districts": []
    },
    {
      "name": "Tỉnh Thừa Thiên Huế",
      "code": 46,
      "division_type": "tỉnh",
      "codename": "tinh_thua_thien_hue",
      "phone_code": 234,
      "districts": []
    },
    {
      "name": "Thành phố Đà Nẵng",
      "code": 48,
      "division_type": "thành phố trung ương",
      "codename": "thanh_pho_da_nang",
      "phone_code": 236,
      "districts": []
    },
    {
      "name": "Tỉnh Quảng Nam",
      "code": 49,
      "division_type": "tỉnh",
      "codename": "tinh_quang_nam",
      "phone_code": 235,
      "districts": []
    },
    {
      "name": "Tỉnh Quảng Ngãi",
      "code": 51,
      "division_type": "tỉnh",
      "codename": "tinh_quang_ngai",
      "phone_code": 255,
      "districts": []
    },
    {
      "name": "Tỉnh Bình Định",
      "code": 52,
      "division_type": "tỉnh",
      "codename": "tinh_binh_dinh",
      "phone_code": 256,
      "districts": []
    },
    {
      "name": "Tỉnh Phú Yên",
      "code": 54,
      "division_type": "tỉnh",
      "codename": "tinh_phu_yen",
      "phone_code": 257,
      "districts": []
    },
    {
      "name": "Tỉnh Khánh Hòa",
      "code": 56,
      "division_type": "tỉnh",
      "codename": "tinh_khanh_hoa",
      "phone_code": 258,
      "districts": []
    },
    {
      "name": "Tỉnh Ninh Thuận",
      "code": 58,
      "division_type": "tỉnh",
      "codename": "tinh_ninh_thuan",
      "phone_code": 259,
      "districts": []
    },
    {
      "name": "Tỉnh Bình Thuận",
      "code": 60,
      "division_type": "tỉnh",
      "codename": "tinh_binh_thuan",
      "phone_code": 252,
      "districts": []
    },
    {
      "name": "Tỉnh Kon Tum",
      "code": 62,
      "division_type": "tỉnh",
      "codename": "tinh_kon_tum",
      "phone_code": 260,
      "districts": []
    },
    {
      "name": "Tỉnh Gia Lai",
      "code": 64,
      "division_type": "tỉnh",
      "codename": "tinh_gia_lai",
      "phone_code": 269,
      "districts": []
    },
    {
      "name": "Tỉnh Đắk Lắk",
      "code": 66,
      "division_type": "tỉnh",
      "codename": "tinh_dak_lak",
      "phone_code": 262,
      "districts": []
    },
    {
      "name": "Tỉnh Đắk Nông",
      "code": 67,
      "division_type": "tỉnh",
      "codename": "tinh_dak_nong",
      "phone_code": 261,
      "districts": []
    },
    {
      "name": "Tỉnh Lâm Đồng",
      "code": 68,
      "division_type": "tỉnh",
      "codename": "tinh_lam_dong",
      "phone_code": 263,
      "districts": []
    },
    {
      "name": "Tỉnh Bình Phước",
      "code": 70,
      "division_type": "tỉnh",
      "codename": "tinh_binh_phuoc",
      "phone_code": 271,
      "districts": []
    },
    {
      "name": "Tỉnh Tây Ninh",
      "code": 72,
      "division_type": "tỉnh",
      "codename": "tinh_tay_ninh",
      "phone_code": 276,
      "districts": []
    },
    {
      "name": "Tỉnh Bình Dương",
      "code": 74,
      "division_type": "tỉnh",
      "codename": "tinh_binh_duong",
      "phone_code": 274,
      "districts": []
    },
    {
      "name": "Tỉnh Đồng Nai",
      "code": 75,
      "division_type": "tỉnh",
      "codename": "tinh_dong_nai",
      "phone_code": 251,
      "districts": []
    },
    {
      "name": "Tỉnh Bà Rịa - Vũng Tàu",
      "code": 77,
      "division_type": "tỉnh",
      "codename": "tinh_ba_ria_vung_tau",
      "phone_code": 254,
      "districts": []
    },
    {
      "name": "Thành phố Hồ Chí Minh",
      "code": 79,
      "division_type": "thành phố trung ương",
      "codename": "thanh_pho_ho_chi_minh",
      "phone_code": 28,
      "districts": []
    },
    {
      "name": "Tỉnh Long An",
      "code": 80,
      "division_type": "tỉnh",
      "codename": "tinh_long_an",
      "phone_code": 272,
      "districts": []
    },
    {
      "name": "Tỉnh Tiền Giang",
      "code": 82,
      "division_type": "tỉnh",
      "codename": "tinh_tien_giang",
      "phone_code": 273,
      "districts": []
    },
    {
      "name": "Tỉnh Bến Tre",
      "code": 83,
      "division_type": "tỉnh",
      "codename": "tinh_ben_tre",
      "phone_code": 275,
      "districts": []
    },
    {
      "name": "Tỉnh Trà Vinh",
      "code": 84,
      "division_type": "tỉnh",
      "codename": "tinh_tra_vinh",
      "phone_code": 294,
      "districts": []
    },
    {
      "name": "Tỉnh Vĩnh Long",
      "code": 86,
      "division_type": "tỉnh",
      "codename": "tinh_vinh_long",
      "phone_code": 270,
      "districts": []
    },
    {
      "name": "Tỉnh Đồng Tháp",
      "code": 87,
      "division_type": "tỉnh",
      "codename": "tinh_dong_thap",
      "phone_code": 277,
      "districts": []
    },
    {
      "name": "Tỉnh An Giang",
      "code": 89,
      "division_type": "tỉnh",
      "codename": "tinh_an_giang",
      "phone_code": 296,
      "districts": []
    },
    {
      "name": "Tỉnh Kiên Giang",
      "code": 91,
      "division_type": "tỉnh",
      "codename": "tinh_kien_giang",
      "phone_code": 297,
      "districts": []
    },
    {
      "name": "Thành phố Cần Thơ",
      "code": 92,
      "division_type": "thành phố trung ương",
      "codename": "thanh_pho_can_tho",
      "phone_code": 292,
      "districts": []
    },
    {
      "name": "Tỉnh Hậu Giang",
      "code": 93,
      "division_type": "tỉnh",
      "codename": "tinh_hau_giang",
      "phone_code": 293,
      "districts": []
    },
    {
      "name": "Tỉnh Sóc Trăng",
      "code": 94,
      "division_type": "tỉnh",
      "codename": "tinh_soc_trang",
      "phone_code": 299,
      "districts": []
    },
    {
      "name": "Tỉnh Bạc Liêu",
      "code": 95,
      "division_type": "tỉnh",
      "codename": "tinh_bac_lieu",
      "phone_code": 291,
      "districts": []
    },
    {
      "name": "Tỉnh Cà Mau",
      "code": 96,
      "division_type": "tỉnh",
      "codename": "tinh_ca_mau",
      "phone_code": 290,
      "districts": []
    }
  ]
}